STARLINK-31627          
1 59268U 24050Q   26068.62213281  .00026938  00000+0  91832-3 0  9991
2 59268  53.1599 181.6290 0000970  80.9687 279.1423 15.30200209110535
TEVEL2-3                
1 63218U 25052J   26068.64540225  .00020365  00000+0  69446-3 0  9991
2 63218  97.3994 324.7775 0004761 105.7353 254.4413 15.30377031 54855
